26566,COSMOS 2374 [GLONASS],2000,675.74,-1.0,-,65.44,Inactive,0,MEO,Kazakhstan,Russia/USSR,Unknown,Unknown,Unknown,1 26566U 00063C   25065.37951079 -.00000073  00000+0  00000+0 0  9992,2 26566  65.4358 329.4976 0075919 211.6955 337.9093  2.13099511189786,2.13099511,0.0075919,MEO
26987,COSMOS 2382 [GLONASS-M],2001,675.72,-1.0,-,63.78,Inactive,0,MEO,Kazakhstan,Russia/USSR,Unknown,Unknown,Unknown,1 26987U 01053A   25067.59342416  .00000024  00000+0  00000+0 0  9999,2 26987  63.7763  73.9850 0004673 219.5816 238.2353  2.13105015181037,2.13105015,0.0004673,MEO
26988,COSMOS 2381 [GLONASS],2001,675.73,-1.0,-,63.78,Inactive,0,MEO,Kazakhstan,Russia/USSR,Unknown,Unknown,Unknown,1 26988U 01053B   25068.75649789  .00000028  00000+0  00000+0 0  9996,2 26988  63.7802  73.9695 0045506 228.3875 129.1376  2.13103857181127,2.13103857,0.0045506,MEO
26989,COSMOS 2380 [GLONASS],2001,675.73,-1.0,-,63.77,Inactive,0,MEO,Kazakhstan,Russia/USSR,Unknown,Unknown,Unknown,1 26989U 01053C   25066.28696909  .00000017  00000+0  00000+0 0  9997,2 26989  63.7719  74.0118 0004995  25.4406  65.0267  2.13102853181065,2.13102853,0.0004995,MEO
28112,COSMOS 2404 [GLONASS-M],2003,675.78,-1.0,-,63.96,Inactive,0,MEO,Kazakhstan,Russia/USSR,Unknown,Unknown,Unknown,1 28112U 03056A   25067.63268884  .00000029  00000+0  00000+0 0  9992,2 28112  63.9565  78.4941 0046907  70.4601  29.6009  2.13088203165338,2.13088203,0.0046907,MEO
28113,COSMOS 2402 [GLONASS],2003,675.72,-1.0,-,63.97,Inactive,0,MEO,Kazakhstan,Russia/USSR,Unknown,Unknown,Unknown,1 28113U 03056B   25067.99083953  .00000031  00000+0  00000+0 0  9997,2 28113  63.9726  78.5864 0047969  74.0041 102.5183  2.13105073165339,2.13105073,0.0047969,MEO
28114,COSMOS 2403 [GLONASS],2003,675.72,-1.0,-,63.98,Inactive,0,MEO,Kazakhstan,Russia/USSR,Unknown,Unknown,Unknown,1 28114U 03056C   25069.52418731  .00000035  00000+0  00000+0 0  9999,2 28114  63.9772  78.5833 0056995  59.6379 121.6121  2.13104676165364,2.13104676,0.0056995,MEO
28508,COSMOS 2411 [GLONASS],2004,675.73,-1.0,-,63.91,Inactive,0,MEO,Kazakhstan,Russia/USSR,Unknown,Unknown,Unknown,1 28508U 04053A   25067.36896961  .00000026  00000+0  00000+0 0  9999,2 28508  63.9091  76.7036 0007792 231.2942 211.4337  2.13103775157205,2.13103775,0.0007792,MEO
28510,COSMOS 2412 [GLONASS],2004,675.73,-1.0,-,63.91,Inactive,0,MEO,Kazakhstan,Russia/USSR,Unknown,Unknown,Unknown,1 28510U 04053C   25068.15739264  .00000030  00000+0  00000+0 0  9997,2 28510  63.9146  76.7476 0006912 256.2301  99.1637  2.13103377157208,2.13103377,0.0006912,MEO
