[
    {
        "OBJECT_NAME": "COSMOS 2374 [GLONASS]",
        "OBJECT_ID": "2000-063C",
        "EPOCH": "2025-03-06T09:06:29.732256",
        "MEAN_MOTION": 2.13099511,
        "ECCENTRICITY": 0.0075919,
        "INCLINATION": 65.4358,
        "RA_OF_ASC_NODE": 329.4976,
        "ARG_OF_PERICENTER": 211.6955,
        "MEAN_ANOMALY": 337.9093,
        "EPHEMERIS_TYPE": 0,
        "CLASSIFICATION_TYPE": "U",
        "NORAD_CAT_ID": 26566,
        "ELEMENT_SET_NO": 999,
        "REV_AT_EPOCH": 18978,
        "BSTAR": 0,
        "MEAN_MOTION_DOT": -7.3e-07,
        "MEAN_MOTION_DDOT": 0
    },
    {
        "OBJECT_NAME": "COSMOS 2382 [GLONASS-M]",
        "OBJECT_ID": "2001-053A",
        "EPOCH": "2025-03-08T14:14:31.847424",
        "MEAN_MOTION": 2.13105015,
        "ECCENTRICITY": 0.0004673,
        "INCLINATION": 63.7763,
        "RA_OF_ASC_NODE": 73.985,
        "ARG_OF_PERICENTER": 219.5816,
        "MEAN_ANOMALY": 238.2353,
        "EPHEMERIS_TYPE": 0,
        "CLASSIFICATION_TYPE": "U",
        "NORAD_CAT_ID": 26987,
        "ELEMENT_SET_NO": 999,
        "REV_AT_EPOCH": 18103,
        "BSTAR": 0,
        "MEAN_MOTION_DOT": 2.4e-07,
        "MEAN_MOTION_DDOT": 0
    },
    {
        "OBJECT_NAME": "COSMOS 2381 [GLONASS]",
        "OBJECT_ID": "2001-053B",
        "EPOCH": "2025-03-09T18:09:21.417696",
        "MEAN_MOTION": 2.13103857,
        "ECCENTRICITY": 0.0045506,
        "INCLINATION": 63.7802,
        "RA_OF_ASC_NODE": 73.9695,
        "ARG_OF_PERICENTER": 228.3875,
        "MEAN_ANOMALY": 129.1376,
        "EPHEMERIS_TYPE": 0,
        "CLASSIFICATION_TYPE": "U",
        "NORAD_CAT_ID": 26988,
        "ELEMENT_SET_NO": 999,
        "REV_AT_EPOCH": 18112,
        "BSTAR": 0,
        "MEAN_MOTION_DOT": 2.8e-07,
        "MEAN_MOTION_DDOT": 0
    },
    {
        "OBJECT_NAME": "COSMOS 2380 [GLONASS]",
        "OBJECT_ID": "2001-053C",
        "EPOCH": "2025-03-07T06:53:14.129376",
        "MEAN_MOTION": 2.13102853,
        "ECCENTRICITY": 0.0004995,
        "INCLINATION": 63.7719,
        "RA_OF_ASC_NODE": 74.0118,
        "ARG_OF_PERICENTER": 25.4406,
        "MEAN_ANOMALY": 65.0267,
        "EPHEMERIS_TYPE": 0,
        "CLASSIFICATION_TYPE": "U",
        "NORAD_CAT_ID": 26989,
        "ELEMENT_SET_NO": 999,
        "REV_AT_EPOCH": 18106,
        "BSTAR": 0,
        "MEAN_MOTION_DOT": 1.7e-07,
        "MEAN_MOTION_DDOT": 0
    },
    {
        "OBJECT_NAME": "COSMOS 2404 [GLONASS-M]",
        "OBJECT_ID": "2003-056A",
        "EPOCH": "2025-03-08T15:11:04.315776",
        "MEAN_MOTION": 2.13088203,
        "ECCENTRICITY": 0.0046907,
        "INCLINATION": 63.9565,
        "RA_OF_ASC_NODE": 78.4941,
        "ARG_OF_PERICENTER": 70.4601,
        "MEAN_ANOMALY": 29.6009,
        "EPHEMERIS_TYPE": 0,
        "CLASSIFICATION_TYPE": "U",
        "NORAD_CAT_ID": 28112,
        "ELEMENT_SET_NO": 999,
        "REV_AT_EPOCH": 16533,
        "BSTAR": 0,
        "MEAN_MOTION_DOT": 2.9e-07,
        "MEAN_MOTION_DDOT": 0
    },
    {
        "OBJECT_NAME": "COSMOS 2402 [GLONASS]",
        "OBJECT_ID": "2003-056B",
        "EPOCH": "2025-03-08T23:46:48.535392",
        "MEAN_MOTION": 2.13105073,
        "ECCENTRICITY": 0.0047969,
        "INCLINATION": 63.9726,
        "RA_OF_ASC_NODE": 78.5864,
        "ARG_OF_PERICENTER": 74.0041,
        "MEAN_ANOMALY": 102.5183,
        "EPHEMERIS_TYPE": 0,
        "CLASSIFICATION_TYPE": "U",
        "NORAD_CAT_ID": 28113,
        "ELEMENT_SET_NO": 999,
        "REV_AT_EPOCH": 16533,
        "BSTAR": 0,
        "MEAN_MOTION_DOT": 3.1e-07,
        "MEAN_MOTION_DDOT": 0
    },
    {
        "OBJECT_NAME": "COSMOS 2403 [GLONASS]",
        "OBJECT_ID": "2003-056C",
        "EPOCH": "2025-03-10T12:34:49.783584",
        "MEAN_MOTION": 2.13104676,
        "ECCENTRICITY": 0.0056995,
        "INCLINATION": 63.9772,
        "RA_OF_ASC_NODE": 78.5833,
        "ARG_OF_PERICENTER": 59.6379,
        "MEAN_ANOMALY": 121.6121,
        "EPHEMERIS_TYPE": 0,
        "CLASSIFICATION_TYPE": "U",
        "NORAD_CAT_ID": 28114,
        "ELEMENT_SET_NO": 999,
        "REV_AT_EPOCH": 16538,
        "BSTAR": 0,
        "MEAN_MOTION_DOT": 3.5e-07,
        "MEAN_MOTION_DDOT": 0
    },
    {
        "OBJECT_NAME": "COSMOS 2411 [GLONASS]",
        "OBJECT_ID": "2004-053A",
        "EPOCH": "2025-03-08T08:51:18.974304",
        "MEAN_MOTION": 2.13103775,
        "ECCENTRICITY": 0.0007792,
        "INCLINATION": 63.9091,
        "RA_OF_ASC_NODE": 76.7036,
        "ARG_OF_PERICENTER": 231.2942,
        "MEAN_ANOMALY": 211.4337,
        "EPHEMERIS_TYPE": 0,
        "CLASSIFICATION_TYPE": "U",
        "NORAD_CAT_ID": 28508,
        "ELEMENT_SET_NO": 999,
        "REV_AT_EPOCH": 15720,
        "BSTAR": 0,
        "MEAN_MOTION_DOT": 2.6e-07,
        "MEAN_MOTION_DDOT": 0
    },
    {
        "OBJECT_NAME": "COSMOS 2412 [GLONASS]",
        "OBJECT_ID": "2004-053C",
        "EPOCH": "2025-03-09T03:46:38.724096",
        "MEAN_MOTION": 2.13103377,
        "ECCENTRICITY": 0.0006912,
        "INCLINATION": 63.9146,
        "RA_OF_ASC_NODE": 76.7476,
        "ARG_OF_PERICENTER": 256.2301,
        "MEAN_ANOMALY": 99.1637,
        "EPHEMERIS_TYPE": 0,
        "CLASSIFICATION_TYPE": "U",
        "NORAD_CAT_ID": 28510,
        "ELEMENT_SET_NO": 999,
        "REV_AT_EPOCH": 15720,
        "BSTAR": 0,
        "MEAN_MOTION_DOT": 3e-07,
        "MEAN_MOTION_DDOT": 0
    }
]